IRIDIUM 63              
1 25286U 98021B   25174.16988988  .00000254  00000+0  79875-4 0  9999
2 25286  86.3974  79.6231 0002030  85.2331 274.9098 14.36550150424972
IRIDIUM 69              
1 25319U 98026A   25173.53920675  .00000309  00000+0  89912-4 0  9994
2 25319  86.3971  93.1624 0003583  44.3443 315.8043 14.40973142424078
IRIDIUM 71              
1 25320U 98026B   25174.17023010  .00000285  00000+0  82280-4 0  9998
2 25320  86.3968  87.5849 0004302  75.9559 284.2119 14.41162608424701
IRIDIUM 73              
1 25344U 98032C   25173.36933841  .00000369  00000+0  86665-4 0  9997
2 25344  86.4409  44.6161 0002108  69.2523 290.8908 14.51720548431316
IRIDIUM 82              
1 25467U 98051A   25174.23085447  .00014158  00000+0  40414-3 0  9993
2 25467  86.3668 106.7663 0081097 273.6847  85.5132 15.32573013424884
